     2.100          NAVIGATION                              RINEX VERSION / TYPE
fic2rin                                 04/23/2017 01:07:24 PGM / RUN BY / DATE
                                                            END OF HEADER
22 17  4 22 18  0  0.0  .331155024469D-04 -.120508047985D-10  .000000000000D+00
     .188000000000D+03 -.389375000000D+02  .507485424519D-08 -.316668838711D+00
    -.199116766453D-05  .759839895181D-02  .119283795357D-04  .515354083252D+04
     .583200000000D+06 -.106170773506D-06 -.769782762233D+00  .175088644028D-06
     .923564293794D+00  .131531250000D+03 -.176417046782D+01 -.840356432790D-08
    -.267868300647D-10  .100000000000D+01  .194500000000D+04  .000000000000D+00
     .240000000000D+01  .000000000000D+00 -.176951289177D-07  .188000000000D+03
     .576006000000D+06  .400000000000D+01
23 17  4 22 18  0  0.0 -.210343394428D-03 -.795807864051D-12  .000000000000D+00
     .630000000000D+02  .729062500000D+02  .505556772755D-08 -.112199500970D+01
     .390782952309D-05  .115629252978D-01  .740960240364D-05  .515375802422D+04
     .583200000000D+06  .311061739922D-06  .313180637825D+00  .465661287308D-07
     .944952232185D+00  .222875000000D+03 -.247791694593D+01 -.836070539980D-08
     .535022285826D-09  .100000000000D+01  .194500000000D+04  .000000000000D+00
     .240000000000D+01  .000000000000D+00 -.204890966415D-07  .630000000000D+02
     .576006000000D+06  .400000000000D+01
24 17  4 22 18  0  0.0 -.337515957654D-04 -.568434188608D-12  .000000000000D+00
     .137000000000D+03 -.196875000000D+02  .536843790270D-08 -.176010810670D+01
    -.112503767014D-05  .564735603984D-02  .392459332943D-05  .515368978119D+04
     .583200000000D+06  .838190317154D-07  .133679795281D+01 -.782310962677D-07
     .945534928548D+00  .295156250000D+03  .487279128857D+00 -.860250118585D-08
    -.975040614355D-10  .100000000000D+01  .194500000000D+04  .000000000000D+00
     .340000000000D+01  .000000000000D+00  .279396772385D-08  .137000000000D+03
     .576006000000D+06  .400000000000D+01
26 17  4 22 18  0  0.0 -.511343125254D-03  .306954461848D-11  .000000000000D+00
     .960000000000D+02 -.834375000000D+01  .453268880468D-08  .198233280334D+01
    -.255182385445D-06  .182830961421D-02  .108107924461D-04  .515369291496D+04
     .583200000000D+06  .111758708954D-07  .240390328578D+01  .875443220139D-07
     .959126158723D+00  .172187500000D+03  .656624474702D-01 -.801711965950D-08
    -.265368196508D-09  .100000000000D+01  .194500000000D+04  .000000000000D+00
     .240000000000D+01  .000000000000D+00  .745058059692D-08  .960000000000D+02
     .576006000000D+06  .400000000000D+01
27 17  4 22 18  0  0.0  .245176255703D-03  .648014975013D-11  .000000000000D+00
     .106000000000D+03  .584375000000D+02  .436589614281D-08  .249042805541D+00
     .303238630295D-05  .472521060146D-02  .647827982903D-05  .515366068268D+04
     .583200000000D+06  .987201929092D-07 -.282514457214D+01  .372529029846D-07
     .974808677106D+00  .257250000000D+03  .320797625092D+00 -.817569769348D-08
     .256439253153D-09  .100000000000D+01  .194500000000D+04  .000000000000D+00
     .240000000000D+01  .000000000000D+00  .139698386192D-08  .106000000000D+03
     .576006000000D+06  .400000000000D+01
28 17  4 22 18  0  0.0  .607019290328D-03  .306954461848D-11  .000000000000D+00
     .190000000000D+02 -.125000000000D+02  .381194449707D-08  .105541075121D+01
    -.795349478722D-06  .197453201981D-01  .121314078569D-04  .515365458679D+04
     .583200000000D+06 -.325962901115D-06  .249701441689D+01 -.255182385445D-06
     .988713543751D+00  .167500000000D+03 -.157087955513D+01 -.794497379719D-08
    -.229652423088D-09  .100000000000D+01  .194500000000D+04  .000000000000D+00
     .340000000000D+01  .000000000000D+00 -.111758708954D-07  .190000000000D+02
     .576006000000D+06  .400000000000D+01
29 17  4 22 18  0  0.0  .610456801951D-03 -.318323145621D-11  .000000000000D+00
     .390000000000D+02  .558125000000D+02  .407516974718D-08  .210389907502D+01
     .284612178802D-05  .714597641490D-03  .710226595402D-05  .515364509773D+04
     .583200000000D+06 -.465661287308D-07 -.276329624615D+01  .447034835815D-07
     .980983954216D+00  .253375000000D+03  .162212407449D+00 -.796533178804D-08
     .274654297597D-09  .100000000000D+01  .194500000000D+04  .000000000000D+00
     .240000000000D+01  .000000000000D+00 -.977888703346D-08  .390000000000D+02
     .576006000000D+06  .400000000000D+01
30 17  4 22 18  0  0.0  .158458482474D-03 -.682121026330D-12  .000000000000D+00
     .113000000000D+03 -.264375000000D+02  .531236413843D-08 -.255317655147D+01
    -.132434070110D-05  .267502409406D-02  .510923564434D-05  .515368290329D+04
     .583200000000D+06 -.204890966415D-07  .142912536360D+01 -.167638063431D-07
     .948190945559D+00  .278687500000D+03  .306101967546D+01 -.852642658846D-08
    -.278225874939D-09  .100000000000D+01  .194500000000D+04  .000000000000D+00
     .340000000000D+01  .000000000000D+00  .372529029846D-08  .113000000000D+03
     .576006000000D+06  .400000000000D+01
31 17  4 22 18  0  0.0  .205620191991D-03 -.238742359215D-11  .000000000000D+00
     .560000000000D+02 -.262500000000D+02  .479484258158D-08 -.280082080147D+01
    -.128336250782D-05  .844761065673D-02  .509805977345D-05  .515368389320D+04
     .583200000000D+06 -.176951289177D-06  .140048254674D+01  .894069671631D-07
     .967211170056D+00  .286625000000D+03 -.259906362052D+00 -.814783939022D-08
    -.276797244002D-09  .100000000000D+01  .194500000000D+04  .000000000000D+00
     .240000000000D+01  .000000000000D+00 -.135041773319D-07  .560000000000D+02
     .576006000000D+06  .400000000000D+01
30 17  4 22 17 59 44.0  .158458948135D-03 -.682121026330D-12  .000000000000D+00
     .110000000000D+02 -.264375000000D+02  .531236413843D-08 -.255551139359D+01
    -.132434070110D-05  .267502060160D-02  .510923564434D-05  .515368289757D+04
     .583184000000D+06 -.204890966415D-07  .142912551428D+01 -.167638063431D-07
     .948190947022D+00  .278687500000D+03  .306102080483D+01 -.852642658846D-08
    -.277868717205D-09  .100000000000D+01  .194500000000D+04  .000000000000D+00
     .240000000000D+01  .000000000000D+00  .372529029846D-08  .110000000000D+02
     .576666000000D+06  .400000000000D+01
24 17  4 22 17 59 44.0 -.337590463459D-04 -.568434188608D-12  .000000000000D+00
     .500000000000D+01 -.196875000000D+02  .536843790270D-08 -.176243881608D+01
    -.112503767014D-05  .564735603984D-02  .392459332943D-05  .515368978882D+04
     .583184000000D+06  .838190317154D-07  .133679809764D+01 -.782310962677D-07
     .945534910993D+00  .295156250000D+03  .487276068433D+00 -.860250118585D-08
    -.975040614355D-10  .100000000000D+01  .194500000000D+04  .000000000000D+00
     .240000000000D+01  .000000000000D+00  .279396772385D-08  .500000000000D+01
     .577086000000D+06  .400000000000D+01
24 17  4 22 19 59 44.0 -.337627716362D-04 -.568434188608D-12  .000000000000D+00
     .900000000000D+01 -.159687500000D+02  .539379610183D-08 -.712355365900D+00
    -.745058059692D-06  .564727571327D-02  .388734042645D-05  .515368877602D+04
     .590384000000D+06  .124797224998D-06  .133673631714D+01  .447034835815D-07
     .945533693845D+00  .296375000000D+03  .487370046290D+00 -.869857661635D-08
    -.155006456641D-09  .100000000000D+01  .194500000000D+04  .000000000000D+00
     .240000000000D+01  .000000000000D+00  .279396772385D-08  .900000000000D+01
     .583206000000D+06  .400000000000D+01
30 17  4 22 19 59 44.0  .158453360200D-03 -.682121026330D-12  .000000000000D+00
     .120000000000D+02 -.271875000000D+02  .524593279987D-08 -.150533139813D+01
    -.167079269886D-05  .267511617858D-02  .495649874210D-05  .515368280220D+04
     .590384000000D+06  .633299350739D-07  .142906363138D+01 -.186264514923D-08
     .948189018896D+00  .277687500000D+03  .306102193859D+01 -.856571393922D-08
    -.216794744657D-09  .100000000000D+01  .194500000000D+04  .000000000000D+00
     .240000000000D+01  .000000000000D+00  .372529029846D-08  .120000000000D+02
     .583206000000D+06  .400000000000D+01
 1 17  4 22 20  0  0.0  .536683946848D-04  .568434188608D-12  .000000000000D+00
     .990000000000D+02 -.535625000000D+02  .468840957679D-08 -.894362923108D+00
    -.286847352982D-05  .649373559281D-02  .469945371151D-05  .515368248558D+04
     .590400000000D+06  .141561031342D-06 -.176782432516D+01  .540167093277D-07
     .966748198909D+00  .291750000000D+03  .537535040366D+00 -.834284751309D-08
    -.319299014371D-09  .100000000000D+01  .194500000000D+04  .000000000000D+00
     .240000000000D+01  .000000000000D+00  .558793544769D-08  .990000000000D+02
     .583206000000D+06  .400000000000D+01
 2 17  4 22 20  0  0.0  .434231013060D-03 -.750333128963D-11  .000000000000D+00
     .730000000000D+02 -.439375000000D+02  .541272546174D-08 -.558556018923D+00
    -.212527811527D-05  .167918016668D-01  .399351119995D-05  .515376603889D+04
     .590400000000D+06 -.540167093277D-07 -.182047867331D+01  .266358256340D-06
     .945679460465D+00  .297906250000D+03 -.198819372130D+01 -.900001774401D-08
    -.193936649668D-09  .100000000000D+01  .194500000000D+04  .000000000000D+00
     .240000000000D+01  .000000000000D+00 -.204890966415D-07  .730000000000D+02
     .583206000000D+06  .400000000000D+01
 3 17  4 22 20  0  0.0 -.103475525975D-03  .136424205266D-11  .000000000000D+00
     .700000000000D+01 -.372500000000D+02  .418660296025D-08 -.155569120462D+01
    -.188127160072D-05  .576476100832D-03  .120140612125D-04  .515376039696D+04
     .590400000000D+06 -.124797224998D-06 -.725180998379D+00 -.353902578354D-07
     .959827927840D+00  .148437500000D+03  .915562832638D-01 -.779782481070D-08
    -.141434462742D-09  .100000000000D+01  .194500000000D+04  .000000000000D+00
     .240000000000D+01  .000000000000D+00  .232830643654D-08  .700000000000D+01
     .583206000000D+06  .400000000000D+01
